{
  "norad_id": 61675,
  "name": "STARLINK-32294",
  "history": [
    {
      "epoch": "2026-03-28T22:01:17.710176Z",
      "apogee_km": 476.05666655781715,
      "perigee_km": 474.4802462347361,
      "latitude_deg": 3.38228255009152e-05,
      "longitude_deg": -155.17959754207095,
      "height_km": 476.2620252828306,
      "semi_major_axis_km": 6853.405456396276,
      "eccentricity": 0.00011501,
      "inclination_deg": 53.1612,
      "raan_deg": 1.4753,
      "arg_perigee_deg": 96.9374,
      "mean_anomaly_deg": 263.1758,
      "mean_motion_rev_day": 15.3018212
    },
    {
      "epoch": "2026-03-29T01:09:23.909760Z",
      "apogee_km": 476.07246987506187,
      "perigee_km": 474.4441031549859,
      "latitude_deg": 1.9887971802440654e-05,
      "longitude_deg": 157.05640831623785,
      "height_km": 476.19282548998626,
      "semi_major_axis_km": 6853.395286515023,
      "eccentricity": 0.0001188,
      "inclination_deg": 53.1622,
      "raan_deg": 0.8659,
      "arg_perigee_deg": 92.5429,
      "mean_anomaly_deg": 267.5708,
      "mean_motion_rev_day": 15.30185526
    }
  ]
}